IRIDE FM7               
1 66701U 25276AM  25363.75406660  .00007834  00000+0  39419-3 0  9995
2 66701  97.4418  75.2203 0003375 223.3491 136.7477 15.17482746  4707
IRIDE FM8               
1 66702U 25276AN  25363.49001357  .00062922  00000+0  31018-2 0  9996
2 66702  97.4394  74.9518 0004395 244.8438 115.2340 15.17677190  4663
PELICAN-6               
1 66703U 25276AP  25363.75296191  .00011924  00000+0  59956-3 0  9996
2 66703  97.4407  75.2146 0001503 201.4460 158.6711 15.17392647  4701
FLOCK 4H-1              
1 66704U 25276AQ  25363.60737749  .00010495  00000+0  51615-3 0  9996
2 66704  97.4382  75.0918 0002436 151.7658 208.3709 15.18197107  4683
FLOCK 4H-2              
1 66705U 25276AR  25363.73838617  .00306282  00000+0  14146-1 0  9995
2 66705  97.4378  75.2222 0004877  98.4798 261.6989 15.18757442  4701
FLOCK 4H-3              
1 66706U 25276AS  25363.75150441  .00009163  00000+0  45927-3 0  9991
2 66706  97.4442  75.2338 0003295 215.4588 144.6427 15.17571889  4708
FLOCK 4H-4              
1 66707U 25276AT  25363.75665162  .00010512  00000+0  53031-3 0  9998
2 66707  97.4425  75.2199 0003954 221.6195 138.4738 15.17302919  4702
FLOCK 4H-5              
1 66708U 25276AU  25363.73720067  .00017480  00000+0  85483-3 0  9990
2 66708  97.4383  75.2273 0001458 122.2277 237.9098 15.18275389  4708
FLOCK 4H-6              
1 66709U 25276AV  25363.80792852  .00018238  00000+0  89819-3 0  9999
2 66709  97.4431  75.3086 0003244 180.5447 179.5784 15.18019100  4718
FLOCK 4H-7              
1 66710U 25276AW  25363.75130444  .00008936  00000+0  44791-3 0  9992
2 66710  97.4387  75.2071 0001166 239.9486 120.1632 15.17582284  4706
FLOCK 4H-8              
1 66711U 25276AX  25363.75151749  .00018244  00000+0  90924-3 0  9996
2 66711  97.4427  75.2312 0002532 233.6511 126.4489 15.17602966  4707
FLOCK 4H-9              
1 66712U 25276AY  25363.80808449  .00015633  00000+0  77036-3 0  9997
2 66712  97.4422  75.3055 0003157 188.9652 171.1526 15.18030970  4711
