CCSDS_OMM_VERS = 2.0
CREATION_DATE  = 
ORIGINATOR     = 

OBJECT_NAME    = IRIDE FM7
OBJECT_ID      = 2025-276AM
CENTER_NAME    = EARTH
REF_FRAME      = TEME
TIME_SYSTEM    = UTC
MEAN_ELEMENT_THEORY = SGP/SGP4

EPOCH          = 2025-12-29T18:05:51.354240
MEAN_MOTION    = 15.17482746
ECCENTRICITY   = .0003375
INCLINATION    = 97.4418
RA_OF_ASC_NODE = 75.2203
ARG_OF_PERICENTER = 223.3491
MEAN_ANOMALY   = 136.7477

EPHEMERIS_TYPE = 0
CLASSIFICATION_TYPE = U
NORAD_CAT_ID   = 66701
ELEMENT_SET_NO = 999
REV_AT_EPOCH   = 470
BSTAR          = .39419E-3
MEAN_MOTION_DOT = .7834E-4
MEAN_MOTION_DDOT = 0

CCSDS_OMM_VERS = 2.0
CREATION_DATE  = 
ORIGINATOR     = 

OBJECT_NAME    = IRIDE FM8
OBJECT_ID      = 2025-276AN
CENTER_NAME    = EARTH
REF_FRAME      = TEME
TIME_SYSTEM    = UTC
MEAN_ELEMENT_THEORY = SGP/SGP4

EPOCH          = 2025-12-29T11:45:37.172448
MEAN_MOTION    = 15.17677190
ECCENTRICITY   = .00043951
INCLINATION    = 97.4394
RA_OF_ASC_NODE = 74.9518
ARG_OF_PERICENTER = 244.8438
MEAN_ANOMALY   = 115.2340

EPHEMERIS_TYPE = 0
CLASSIFICATION_TYPE = U
NORAD_CAT_ID   = 66702
ELEMENT_SET_NO = 999
REV_AT_EPOCH   = 466
BSTAR          = .31018324E-2
MEAN_MOTION_DOT = .62922E-3
MEAN_MOTION_DDOT = 0

CCSDS_OMM_VERS = 2.0
CREATION_DATE  = 
ORIGINATOR     = 

OBJECT_NAME    = PELICAN-6
OBJECT_ID      = 2025-276AP
CENTER_NAME    = EARTH
REF_FRAME      = TEME
TIME_SYSTEM    = UTC
MEAN_ELEMENT_THEORY = SGP/SGP4

EPOCH          = 2025-12-29T18:04:15.909024
MEAN_MOTION    = 15.17392647
ECCENTRICITY   = .0001503
INCLINATION    = 97.4407
RA_OF_ASC_NODE = 75.2146
ARG_OF_PERICENTER = 201.4460
MEAN_ANOMALY   = 158.6711

EPHEMERIS_TYPE = 0
CLASSIFICATION_TYPE = U
NORAD_CAT_ID   = 66703
ELEMENT_SET_NO = 999
REV_AT_EPOCH   = 470
BSTAR          = .59956E-3
MEAN_MOTION_DOT = .11924E-3
MEAN_MOTION_DDOT = 0

CCSDS_OMM_VERS = 2.0
CREATION_DATE  = 
ORIGINATOR     = 

OBJECT_NAME    = FLOCK 4H-1
OBJECT_ID      = 2025-276AQ
CENTER_NAME    = EARTH
REF_FRAME      = TEME
TIME_SYSTEM    = UTC
MEAN_ELEMENT_THEORY = SGP/SGP4

EPOCH          = 2025-12-29T14:34:37.415136
MEAN_MOTION    = 15.18197107
ECCENTRICITY   = .0002436
INCLINATION    = 97.4382
RA_OF_ASC_NODE = 75.0918
ARG_OF_PERICENTER = 151.7658
MEAN_ANOMALY   = 208.3709

EPHEMERIS_TYPE = 0
CLASSIFICATION_TYPE = U
NORAD_CAT_ID   = 66704
ELEMENT_SET_NO = 999
REV_AT_EPOCH   = 468
BSTAR          = .51615E-3
MEAN_MOTION_DOT = .10495E-3
MEAN_MOTION_DDOT = 0

CCSDS_OMM_VERS = 2.0
CREATION_DATE  = 
ORIGINATOR     = 

OBJECT_NAME    = FLOCK 4H-2
OBJECT_ID      = 2025-276AR
CENTER_NAME    = EARTH
REF_FRAME      = TEME
TIME_SYSTEM    = UTC
MEAN_ELEMENT_THEORY = SGP/SGP4

EPOCH          = 2025-12-29T17:43:16.565088
MEAN_MOTION    = 15.18757442
ECCENTRICITY   = .0004877
INCLINATION    = 97.4378
RA_OF_ASC_NODE = 75.2222
ARG_OF_PERICENTER = 98.4798
MEAN_ANOMALY   = 261.6989

EPHEMERIS_TYPE = 0
CLASSIFICATION_TYPE = U
NORAD_CAT_ID   = 66705
ELEMENT_SET_NO = 999
REV_AT_EPOCH   = 470
BSTAR          = .14146E-1
MEAN_MOTION_DOT = .306282E-2
MEAN_MOTION_DDOT = 0

CCSDS_OMM_VERS = 2.0
CREATION_DATE  = 
ORIGINATOR     = 

OBJECT_NAME    = FLOCK 4H-3
OBJECT_ID      = 2025-276AS
CENTER_NAME    = EARTH
REF_FRAME      = TEME
TIME_SYSTEM    = UTC
MEAN_ELEMENT_THEORY = SGP/SGP4

EPOCH          = 2025-12-29T18:02:09.981024
MEAN_MOTION    = 15.17571889
ECCENTRICITY   = .0003295
INCLINATION    = 97.4442
RA_OF_ASC_NODE = 75.2338
ARG_OF_PERICENTER = 215.4588
MEAN_ANOMALY   = 144.6427

EPHEMERIS_TYPE = 0
CLASSIFICATION_TYPE = U
NORAD_CAT_ID   = 66706
ELEMENT_SET_NO = 999
REV_AT_EPOCH   = 470
BSTAR          = .45927E-3
MEAN_MOTION_DOT = .9163E-4
MEAN_MOTION_DDOT = 0

CCSDS_OMM_VERS = 2.0
CREATION_DATE  = 
ORIGINATOR     = 

OBJECT_NAME    = FLOCK 4H-4
OBJECT_ID      = 2025-276AT
CENTER_NAME    = EARTH
REF_FRAME      = TEME
TIME_SYSTEM    = UTC
MEAN_ELEMENT_THEORY = SGP/SGP4

EPOCH          = 2025-12-29T18:09:34.699968
MEAN_MOTION    = 15.17302919
ECCENTRICITY   = .0003954
INCLINATION    = 97.4425
RA_OF_ASC_NODE = 75.2199
ARG_OF_PERICENTER = 221.6195
MEAN_ANOMALY   = 138.4738

EPHEMERIS_TYPE = 0
CLASSIFICATION_TYPE = U
NORAD_CAT_ID   = 66707
ELEMENT_SET_NO = 999
REV_AT_EPOCH   = 470
BSTAR          = .53031E-3
MEAN_MOTION_DOT = .10512E-3
MEAN_MOTION_DDOT = 0

CCSDS_OMM_VERS = 2.0
CREATION_DATE  = 
ORIGINATOR     = 

OBJECT_NAME    = FLOCK 4H-5
OBJECT_ID      = 2025-276AU
CENTER_NAME    = EARTH
REF_FRAME      = TEME
TIME_SYSTEM    = UTC
MEAN_ELEMENT_THEORY = SGP/SGP4

EPOCH          = 2025-12-29T17:41:34.137888
MEAN_MOTION    = 15.18275389
ECCENTRICITY   = .0001458
INCLINATION    = 97.4383
RA_OF_ASC_NODE = 75.2273
ARG_OF_PERICENTER = 122.2277
MEAN_ANOMALY   = 237.9098

EPHEMERIS_TYPE = 0
CLASSIFICATION_TYPE = U
NORAD_CAT_ID   = 66708
ELEMENT_SET_NO = 999
REV_AT_EPOCH   = 470
BSTAR          = .85483E-3
MEAN_MOTION_DOT = .1748E-3
MEAN_MOTION_DDOT = 0

CCSDS_OMM_VERS = 2.0
CREATION_DATE  = 
ORIGINATOR     = 

OBJECT_NAME    = FLOCK 4H-6
OBJECT_ID      = 2025-276AV
CENTER_NAME    = EARTH
REF_FRAME      = TEME
TIME_SYSTEM    = UTC
MEAN_ELEMENT_THEORY = SGP/SGP4

EPOCH          = 2025-12-29T19:23:25.024128
MEAN_MOTION    = 15.18019100
ECCENTRICITY   = .0003244
INCLINATION    = 97.4431
RA_OF_ASC_NODE = 75.3086
ARG_OF_PERICENTER = 180.5447
MEAN_ANOMALY   = 179.5784

EPHEMERIS_TYPE = 0
CLASSIFICATION_TYPE = U
NORAD_CAT_ID   = 66709
ELEMENT_SET_NO = 999
REV_AT_EPOCH   = 471
BSTAR          = .89819E-3
MEAN_MOTION_DOT = .18238E-3
MEAN_MOTION_DDOT = 0

CCSDS_OMM_VERS = 2.0
CREATION_DATE  = 
ORIGINATOR     = 

OBJECT_NAME    = FLOCK 4H-7
OBJECT_ID      = 2025-276AW
CENTER_NAME    = EARTH
REF_FRAME      = TEME
TIME_SYSTEM    = UTC
MEAN_ELEMENT_THEORY = SGP/SGP4

EPOCH          = 2025-12-29T18:01:52.703616
MEAN_MOTION    = 15.17582284
ECCENTRICITY   = .0001166
INCLINATION    = 97.4387
RA_OF_ASC_NODE = 75.2071
ARG_OF_PERICENTER = 239.9486
MEAN_ANOMALY   = 120.1632

EPHEMERIS_TYPE = 0
CLASSIFICATION_TYPE = U
NORAD_CAT_ID   = 66710
ELEMENT_SET_NO = 999
REV_AT_EPOCH   = 470
BSTAR          = .44791E-3
MEAN_MOTION_DOT = .8936E-4
MEAN_MOTION_DDOT = 0

CCSDS_OMM_VERS = 2.0
CREATION_DATE  = 
ORIGINATOR     = 

OBJECT_NAME    = FLOCK 4H-8
OBJECT_ID      = 2025-276AX
CENTER_NAME    = EARTH
REF_FRAME      = TEME
TIME_SYSTEM    = UTC
MEAN_ELEMENT_THEORY = SGP/SGP4

EPOCH          = 2025-12-29T18:02:11.111136
MEAN_MOTION    = 15.17602966
ECCENTRICITY   = .0002532
INCLINATION    = 97.4427
RA_OF_ASC_NODE = 75.2312
ARG_OF_PERICENTER = 233.6511
MEAN_ANOMALY   = 126.4489

EPHEMERIS_TYPE = 0
CLASSIFICATION_TYPE = U
NORAD_CAT_ID   = 66711
ELEMENT_SET_NO = 999
REV_AT_EPOCH   = 470
BSTAR          = .90924E-3
MEAN_MOTION_DOT = .18244E-3
MEAN_MOTION_DDOT = 0

CCSDS_OMM_VERS = 2.0
CREATION_DATE  = 
ORIGINATOR     = 

OBJECT_NAME    = FLOCK 4H-9
OBJECT_ID      = 2025-276AY
CENTER_NAME    = EARTH
REF_FRAME      = TEME
TIME_SYSTEM    = UTC
MEAN_ELEMENT_THEORY = SGP/SGP4

EPOCH          = 2025-12-29T19:23:38.499936
MEAN_MOTION    = 15.18030970
ECCENTRICITY   = .0003157
INCLINATION    = 97.4422
RA_OF_ASC_NODE = 75.3055
ARG_OF_PERICENTER = 188.9652
MEAN_ANOMALY   = 171.1526

EPHEMERIS_TYPE = 0
CLASSIFICATION_TYPE = U
NORAD_CAT_ID   = 66712
ELEMENT_SET_NO = 999
REV_AT_EPOCH   = 471
BSTAR          = .77036E-3
MEAN_MOTION_DOT = .15633E-3
MEAN_MOTION_DDOT = 0

